satname,norad_id,inclination_deg,eccentricity,mean_motion_rev_per_day,perigee_km,apogee_km,l1,l2
STARLINK-1522,46027,53.054,0.0001397,15.06394498,546.2609472778795,548.1958943764585,1 46027U 20055A   26031.93954466 -.00001271  00000+0 -66463-4 0  9990,2 46027  53.0540 291.5951 0001397  92.1213 267.9936 15.06394498303342
STARLINK-1523,46028,53.0545,0.0001365,15.06393685,546.2855998512996,548.1762252914314,1 46028U 20055B   26032.15334225 -.00002339  00000+0 -13820-3 0  9995,2 46028  53.0545 290.6369 0001365  84.8073 275.3072 15.06393685303394
STARLINK-1526,46029,53.0551,0.0001215,15.06391926,546.3948708395355,548.0777365523345,1 46029U 20055C   26032.14598078  .00001034  00000+0  88337-4 0  9998,2 46029  53.0551 290.6692 0001215  78.9645 281.1481 15.06391926303388
STARLINK-1555,46032,53.0534,0.0001463,15.06414912,546.1526833752987,548.1790269907251,1 46032U 20055F   26031.99852844  .00016401  00000+0  11170-2 0  9991,2 46032  53.0534 291.3306 0001463  89.3057 270.8099 15.06414912303360
STARLINK-1556,46033,53.0539,0.0001589,15.06406701,546.090585792087,548.2914550369742,1 46033U 20055G   26032.11279256  .00005625  00000+0  39614-3 0  9997,2 46033  53.0539 290.8194 0001589  89.9916 270.1256 15.06406701303358
STARLINK-1557,46034,53.0544,0.0001626,15.06413399,546.0444372392385,548.2965472357137,1 46034U 20055H   26032.11647866  .00004580  00000+0  32604-3 0  9995,2 46034  53.0544 290.8012 0001626  90.3579 269.7596 15.06413399303359
STARLINK-1558,46035,53.0542,0.0001485,15.0638688,546.2233489082837,548.2801893727192,1 46035U 20055J   26032.12385717  .00000512  00000+0  53314-4 0  9994,2 46035  53.0542 290.7694 0001485  89.3298 270.7861 15.06386880303386
STARLINK-1560,46036,53.053,0.0001291,15.0639664,546.3277920451965,548.1159197017832,1 46036U 20055K   26031.97642126  .00001518  00000+0  12079-3 0  9996,2 46036  53.0530 291.4312 0001291  92.2036 267.9101 15.06396640303365
STARLINK-1567,46038,53.0538,0.0001544,15.06410344,546.1105863270468,548.2491241719481,1 46038U 20055M   26031.98746142  .00004372  00000+0  31214-3 0  9995,2 46038  53.0538 291.3802 0001544  83.1861 276.9304 15.06410344303356
STARLINK-1569,46039,53.0527,0.0001553,15.0638623,546.1782481412847,548.3292745117533,1 46039U 20055N   26032.12754256  .00003354  00000+0  24407-3 0  9993,2 46039  53.0527 290.7518 0001553  95.0206 265.0961 15.06386230303373
STARLINK-1582,46043,53.0541,0.0001367,15.06390466,546.2940792869322,548.187477571556,1 46043U 20055S   26032.13491523  .00000623  00000+0  60708-4 0  9995,2 46043  53.0541 290.7172 0001367  92.0844 268.0302 15.06390466303376
STARLINK-1591,46045,53.0539,0.0001285,15.06403585,546.3106645736007,548.0904763292056,1 46045U 20055U   26032.02802680  .00008695  00000+0  60185-3 0  9990,2 46045  53.0539 291.1992 0001285  85.4879 274.6257 15.06403585303349
STARLINK-1524,46047,53.0541,0.000153,15.06385319,546.1969682405761,548.316138667934,1 46047U 20055W   26032.37911855  .00005431  00000+0  38334-3 0  9991,2 46047  53.0541 279.6223 0001530  91.1298 268.9866 15.06385319303553
STARLINK-1527,46048,53.0543,0.0001349,15.06398336,546.2824276548663,548.1508880717574,1 46048U 20055X   26032.11002629  .00000087  00000+0  24746-4 0  9999,2 46048  53.0543 280.8317 0001349  74.1619 285.9518 15.06398336303499
STARLINK-1540,46051,53.0541,0.0001515,15.06393369,546.1826876873065,548.2810744582712,1 46051U 20055AA  26032.07685440 -.00001120  00000+0 -56324-4 0  9994,2 46051  53.0541 280.9774 0001515  92.9935 267.1227 15.06393369303527
STARLINK-1541,46052,53.0554,0.0001345,15.06391509,546.3061188713418,548.1690446338334,1 46052U 20055AB  26032.12845980  .00000386  00000+0  44841-4 0  9990,2 46052  53.0554 280.7474 0001345  86.9088 273.2055 15.06391509303497
STARLINK-1543,46053,53.0554,0.0001377,15.06395427,546.2719511337218,548.1791959864804,1 46053U 20055AC  26032.06580273  .00002278  00000+0  17177-3 0  9998,2 46053  53.0554 281.0296 0001377  81.9810 278.1335 15.06395427303518
STARLINK-1548,46054,53.0538,0.0001416,15.06390543,546.2599089728465,548.2211758928634,1 46054U 20055AD  26032.07317021  .00001049  00000+0  89298-4 0  9998,2 46054  53.0538 280.9948 0001416  88.3150 271.8001 15.06390543303519
STARLINK-1554,46055,53.0542,0.0001459,15.06385278,546.2462641776119,548.2670940531771,1 46055U 20055AE  26031.99208319 -.00002910  00000+0 -17658-3 0  9998,2 46055  53.0542 281.3598 0001459  90.5190 269.5966 15.06385278303509
STARLINK-1564,46058,53.0545,0.0001432,15.06399527,546.2212974944414,548.2047177366212,1 46058U 20055AH  26032.06953353  .00000243  00000+0  35180-4 0  9991,2 46058  53.0545 281.4734 0001432  98.0450 262.0702 15.06399527303509
STARLINK-1570,46059,53.0542,0.0001314,15.06394683,546.3178608836279,548.1378467672121,1 46059U 20055AJ  26032.09897383  .00000660  00000+0  63202-4 0  9994,2 46059  53.0542 280.8806 0001314  88.7655 271.3485 15.06394683303477
STARLINK-1572,46060,53.0539,9.97e-05,15.06394856,546.5368647792056,547.9177824253329,1 46060U 20055AK  26032.09527147 -.00004221  00000+0 -26472-3 0  9990,2 46060  53.0539 280.8961 0000997  95.0937 265.0166 15.06394856303486
STARLINK-1573,46061,53.0555,0.0001428,15.06402927,546.213648626328,548.1915256124094,1 46061U 20055AL  26032.09159860  .00000721  00000+0  67293-4 0  9990,2 46061  53.0555 280.9526 0001428  85.1721 274.9431 15.06402927303511
STARLINK-1577,46063,53.0539,0.0001507,15.06398005,546.1740213835728,548.2613232818139,1 46063U 20055AN  26032.38278296  .00000085  00000+0  24629-4 0  9998,2 46063  53.0539 279.6058 0001507  90.3519 269.7643 15.06398005303553
STARLINK-1583,46064,53.0545,0.0001615,15.06384909,546.1393588040746,548.3762613277249,1 46064U 20055AP  26031.95154004 -.00000727  00000+0 -29890-4 0  9991,2 46064  53.0545 281.5424 0001615  83.9819 276.1354 15.06384909303493
STARLINK-1525,46066,53.0546,0.0001268,15.06395689,546.346634691382,548.1029064363975,1 46066U 20055AR  26032.01603096  .00001701  00000+0  13310-3 0  9991,2 46066  53.0546 261.2515 0001268  88.4336 271.6798 15.06395689303770
STARLINK-1536,46070,53.0544,0.0001588,15.06392811,546.1338424256019,548.3333401253904,1 46070U 20055AV  26032.06026708 -.00000967  00000+0 -46053-4 0  9996,2 46070  53.0544 261.0507 0001588  88.8807 271.2364 15.06392811303795
STARLINK-1542,46073,53.0541,0.0001272,15.0639155,546.3565484615001,548.1183637231306,1 46073U 20055AY  26032.31828758 -.00001510  00000+0 -82493-4 0  9995,2 46073  53.0541 259.8941 0001272  90.4362 269.6772 15.06391550303824
